{
  "links" : {
    "next" : "https://api.nasa.gov/neo/rest/v1/neo/browse?page=14&size=20&api_key=jqAGvNAwUIBu4fl9FSOjdm3V4F7hIglRzI6pdX9d",
    "prev" : "https://api.nasa.gov/neo/rest/v1/neo/browse?page=12&size=20&api_key=jqAGvNAwUIBu4fl9FSOjdm3V4F7hIglRzI6pdX9d",
    "self" : "https://api.nasa.gov/neo/rest/v1/neo/browse?page=13&size=20&api_key=jqAGvNAwUIBu4fl9FSOjdm3V4F7hIglRzI6pdX9d"
  },
  "page" : {
    "size" : 20,
    "total_elements" : 20750,
    "total_pages" : 1038,
    "number" : 13
  },
  "near_earth_objects" : [ {
    "links" : {
      "self" : "https://api.nasa.gov/neo/rest/v1/neo/3164406?api_key=jqAGvNAwUIBu4fl9FSOjdm3V4F7hIglRzI6pdX9d"
    },
    "neo_reference_id" : "3164406",
    "name" : "(2003 UC22)",
    "designation" : "2003 UC22",
    "nasa_jpl_url" : "http://ssd.jpl.nasa.gov/sbdb.cgi?sstr=3164406",
    "absolute_magnitude_h" : 22.1,
    "estimated_diameter" : {
      "kilometers" : {
        "estimated_diameter_min" : 0.1010543415,
        "estimated_diameter_max" : 0.2259643771
      },
      "meters" : {
        "estimated_diameter_min" : 101.054341542,
        "estimated_diameter_max" : 225.9643771094
      },
      "miles" : {
        "estimated_diameter_min" : 0.0627922373,
        "estimated_diameter_max" : 0.140407711
      },
      "feet" : {
        "estimated_diameter_min" : 331.5431259047,
        "estimated_diameter_max" : 741.3529669956
      }
    },
    "is_potentially_hazardous_asteroid" : false,
    "close_approach_data" : [ {
      "close_approach_date" : "2003-10-20",
      "epoch_date_close_approach" : 1066633200000,
      "relative_velocity" : {
        "kilometers_per_second" : "2.8453182414",
        "kilometers_per_hour" : "10243.1456689346",
        "miles_per_hour" : "6364.6923741222"
      },
      "miss_distance" : {
        "astronomical" : "0.2712549088",
        "lunar" : "105.518157959",
        "kilometers" : "40579156",
        "miles" : "25214718"
      },
      "orbiting_body" : "Earth"
    } ],
    "orbital_data" : {
      "orbit_id" : "13",
      "orbit_determination_date" : "2017-04-06 09:13:36",
      "first_observation_date" : "2003-10-22",
      "last_observation_date" : "2003-11-30",
      "data_arc_in_days" : 39,
      "observations_used" : 41,
      "orbit_uncertainty" : "7",
      "minimum_orbit_intersection" : ".267476",
      "jupiter_tisserand_invariant" : "3.577",
      "epoch_osculation" : "2458600.5",
      "eccentricity" : ".4163793822525881",
      "semi_major_axis" : "2.159523837967912",
      "inclination" : "4.789368938505032",
      "ascending_node_longitude" : "232.4151010934784",
      "orbital_period" : "1159.138765773768",
      "perihelion_distance" : "1.260342636355095",
      "perihelion_argument" : "152.0385373738569",
      "aphelion_distance" : "3.05870503958073",
      "perihelion_time" : "2458723.315491487167",
      "mean_anomaly" : "321.8565281044105",
      "mean_motion" : ".3105754122196808",
      "equinox" : "J2000",
      "orbit_class" : {
        "orbit_class_type" : "AMO",
        "orbit_class_range" : "1.017 AU < q (perihelion) < 1.3 AU",
        "orbit_class_description" : "Near-Earth asteroid orbits similar to that of 1221 Amor"
      }
    },
    "is_sentry_object" : false
  }, {
    "links" : {
      "self" : "https://api.nasa.gov/neo/rest/v1/neo/3164408?api_key=jqAGvNAwUIBu4fl9FSOjdm3V4F7hIglRzI6pdX9d"
    },
    "neo_reference_id" : "3164408",
    "name" : "(2003 UE22)",
    "designation" : "2003 UE22",
    "nasa_jpl_url" : "http://ssd.jpl.nasa.gov/sbdb.cgi?sstr=3164408",
    "absolute_magnitude_h" : 24.7,
    "estimated_diameter" : {
      "kilometers" : {
        "estimated_diameter_min" : 0.0305179233,
        "estimated_diameter_max" : 0.0682401509
      },
      "meters" : {
        "estimated_diameter_min" : 30.5179232594,
        "estimated_diameter_max" : 68.2401509401
      },
      "miles" : {
        "estimated_diameter_min" : 0.0189629525,
        "estimated_diameter_max" : 0.0424024508
      },
      "feet" : {
        "estimated_diameter_min" : 100.1244233463,
        "estimated_diameter_max" : 223.8850168104
      }
    },
    "is_potentially_hazardous_asteroid" : false,
    "close_approach_data" : [ {
      "close_approach_date" : "2003-10-21",
      "epoch_date_close_approach" : 1066719600000,
      "relative_velocity" : {
        "kilometers_per_second" : "7.6979665949",
        "kilometers_per_hour" : "27712.6797415446",
        "miles_per_hour" : "17219.5814760726"
      },
      "miss_distance" : {
        "astronomical" : "0.0676165918",
        "lunar" : "26.3028526306",
        "kilometers" : "10115298",
        "miles" : "6285354.5"
      },
      "orbiting_body" : "Earth"
    } ],
    "orbital_data" : {
      "orbit_id" : "11",
      "orbit_determination_date" : "2017-04-06 09:13:36",
      "first_observation_date" : "2003-10-23",
      "last_observation_date" : "2003-11-05",
      "data_arc_in_days" : 13,
      "observations_used" : 48,
      "orbit_uncertainty" : "8",
      "minimum_orbit_intersection" : ".0663619",
      "jupiter_tisserand_invariant" : "3.338",
      "epoch_osculation" : "2452939.5",
      "eccentricity" : ".5457474890457132",
      "semi_major_axis" : "2.337333920525758",
      "inclination" : "8.121077238463249",
      "ascending_node_longitude" : "29.54835743200412",
      "orbital_period" : "1305.207526774109",
      "perihelion_distance" : "1.061739802337453",
      "perihelion_argument" : "355.6864031826684",
      "aphelion_distance" : "3.612928038714063",
      "perihelion_time" : "2452932.446955672246",
      "mean_anomaly" : "1.945358041465599",
      "mean_motion" : ".2758182071549644",
      "equinox" : "J2000",
      "orbit_class" : {
        "orbit_class_type" : "AMO",
        "orbit_class_range" : "1.017 AU < q (perihelion) < 1.3 AU",
        "orbit_class_description" : "Near-Earth asteroid orbits similar to that of 1221 Amor"
      }
    },
    "is_sentry_object" : false
  }, {
    "links" : {
      "self" : "https://api.nasa.gov/neo/rest/v1/neo/3164414?api_key=jqAGvNAwUIBu4fl9FSOjdm3V4F7hIglRzI6pdX9d"
    },
    "neo_reference_id" : "3164414",
    "name" : "(2003 UQ25)",
    "designation" : "2003 UQ25",
    "nasa_jpl_url" : "http://ssd.jpl.nasa.gov/sbdb.cgi?sstr=3164414",
    "absolute_magnitude_h" : 24.1,
    "estimated_diameter" : {
      "kilometers" : {
        "estimated_diameter_min" : 0.040230458,
        "estimated_diameter_max" : 0.0899580388
      },
      "meters" : {
        "estimated_diameter_min" : 40.2304579834,
        "estimated_diameter_max" : 89.9580388169
      },
      "miles" : {
        "estimated_diameter_min" : 0.0249980399,
        "estimated_diameter_max" : 0.0558973165
      },
      "feet" : {
        "estimated_diameter_min" : 131.9896957704,
        "estimated_diameter_max" : 295.1379320721
      }
    },
    "is_potentially_hazardous_asteroid" : false,
    "close_approach_data" : [ {
      "close_approach_date" : "2003-11-06",
      "epoch_date_close_approach" : 1068105600000,
      "relative_velocity" : {
        "kilometers_per_second" : "16.0464985918",
        "kilometers_per_hour" : "57767.3949304886",
        "miles_per_hour" : "35894.4127000028"
      },
      "miss_distance" : {
        "astronomical" : "0.0392746807",
        "lunar" : "15.2778511047",
        "kilometers" : "5875409",
        "miles" : "3650809.75"
      },
      "orbiting_body" : "Earth"
    } ],
    "orbital_data" : {
      "orbit_id" : "16",
      "orbit_determination_date" : "2017-04-06 09:13:34",
      "first_observation_date" : "2003-10-24",
      "last_observation_date" : "2003-11-04",
      "data_arc_in_days" : 11,
      "observations_used" : 57,
      "orbit_uncertainty" : "8",
      "minimum_orbit_intersection" : ".0164127",
      "jupiter_tisserand_invariant" : "3.067",
      "epoch_osculation" : "2452940.5",
      "eccentricity" : ".6823505348727769",
      "semi_major_axis" : "2.54382617156825",
      "inclination" : "2.135644609673824",
      "ascending_node_longitude" : "187.6197639771693",
      "orbital_period" : "1481.936427595382",
      "perihelion_distance" : ".8080450227752863",
      "perihelion_argument" : "276.4802336281248",
      "aphelion_distance" : "4.279607320361213",
      "perihelion_time" : "2452988.897249745475",
      "mean_anomaly" : "348.2430787286592",
      "mean_motion" : ".2429254003723646",
      "equinox" : "J2000",
      "orbit_class" : {
        "orbit_class_type" : "APO",
        "orbit_class_range" : "a (semi-major axis) > 1.0 AU; q (perihelion) < 1.017 AU",
        "orbit_class_description" : "Near-Earth asteroid orbits which cross the Earth’s orbit similar to that of 1862 Apollo"
      }
    },
    "is_sentry_object" : true,
    "sentry_data" : "https://api.nasa.gov/neo/rest/v1/neo/sentry/3164414?api_key=jqAGvNAwUIBu4fl9FSOjdm3V4F7hIglRzI6pdX9d"
  } ]
}